ONEWEB-0403             
1 50483U 21132Q   25165.95045331 -.00000012  00000+0 -63321-4 0  9991
2 50483  87.9148  48.4278 0001855  75.8125 284.3213 13.18688121173192
ONEWEB-0404             
1 50484U 21132R   25166.19143675  .00000130  00000+0  33060-3 0  9994
2 50484  87.8845  94.2258 0001940  66.9360 293.1972 13.11413430168860
ONEWEB-0405             
1 50485U 21132S   25165.66274553 -.00000024  00000+0 -92925-4 0  9996
2 50485  87.9144  48.4731 0001537  82.6020 277.5287 13.18688103173556
ONEWEB-0406             
1 50486U 21132T   25165.65169365 -.00000009  00000+0 -54520-4 0  9992
2 50486  87.9148  48.4963 0002217  67.2014 292.9352 13.18686988173188
ONEWEB-0407             
1 50487U 21132U   25166.10061418  .00000111  00000+0  24852-3 0  9990
2 50487  87.9144  48.3926 0001716  80.1517 279.9809 13.18688050174475
ONEWEB-0409             
1 50488U 21132V   25166.18974575  .00000172  00000+0  45077-3 0  9995
2 50488  87.8839  94.1913 0002154  70.3965 289.7395 13.11413840168766
ONEWEB-0412             
1 50489U 21132W   25165.93779847 -.00000053  00000+0 -16766-3 0  9996
2 50489  87.9143  48.4392 0001484  87.5624 272.5678 13.18685155173257
ONEWEB-0413             
1 50490U 21132X   25166.09429855  .00000062  00000+0  12449-3 0  9999
2 50490  87.9149  48.4219 0001654  89.2729 270.8593 13.18687908174501
